{"type": "FeatureCollection", "features": [ {"type": "Feature", "properties": {"norad_id": 40697, "name": "SENTINEL-2A", "group": "resource", "lat": -47.677809917635166, "lon": 68.76421183658222, "alt_km": 796.3660342292123, "timestamp": "2025-12-12T16:50:32.804765+00:00", "meta": {"OBJECT_NAME": "SENTINEL-2A", "OBJECT_ID": "2015-028A", "EPOCH": "2025-12-12T06:59:53.776896", "MEAN_MOTION": 14.30812998, "ECCENTRICITY": 0.00010849, "INCLINATION": 98.5685, "RA_OF_ASC_NODE": 58.8299, "ARG_OF_PERICENTER": 89.238, "MEAN_ANOMALY": 270.8927, "EPHEMERIS_TYPE": 0, "CLASSIFICATION_TYPE": "U", "NORAD_CAT_ID": 40697, "ELEMENT_SET_NO": 999, "REV_AT_EPOCH": 54700, "BSTAR": 0.00014115992, "MEAN_MOTION_DOT": 3.26e-06, "MEAN_MOTION_DDOT": 0}, "tle": {"line1": "1 40697U 15028A   25346.29159464  .00000326  00000+0  14116-3 0  9998", "line2": "2 40697  98.5685  58.8299 0001084  89.2380 270.8927 14.30812998547009"}}, "geometry": {"type": "Point", "coordinates": [68.76421183658222, -47.677809917635166]}}, {"type": "Feature", "properties": {"norad_id": 40701, "name": "GAOFEN-8", "group": "resource", "lat": -16.27763779863499, "lon": 167.10178844042616, "alt_km": 462.5069977670728, "timestamp": "2025-12-12T16:50:32.804775+00:00", "meta": {"OBJECT_NAME": "GAOFEN-8", "OBJECT_ID": "2015-030A", "EPOCH": "2025-12-12T07:32:53.746080", "MEAN_MOTION": 15.38529261, "ECCENTRICITY": 0.00116616, "INCLINATION": 97.6912, "RA_OF_ASC_NODE": 164.4342, "ARG_OF_PERICENTER": 139.2369, "MEAN_ANOMALY": 220.9751, "EPHEMERIS_TYPE": 0, "CLASSIFICATION_TYPE": "U", "NORAD_CAT_ID": 40701, "ELEMENT_SET_NO": 999, "REV_AT_EPOCH": 58264, "BSTAR": 0.00079844701, "MEAN_MOTION_DOT": 0.00030427, "MEAN_MOTION_DDOT": 0}, "tle": {"line1": "1 40701U 15030A   25346.31451095  .00030427  00000+0  79845-3 0  9990", "line2": "2 40701  97.6912 164.4342 0011661 139.2369 220.9751 15.38529261582643"}}, "geometry": {"type": "Point", "coordinates": [167.10178844042616, -16.27763779863499]}}, {"type": "Feature", "properties": {"norad_id": 40718, "name": "CARBONITE 1 (CBNT-1)", "group": "resource", "lat": -75.04140726855722, "lon": -162.0916979268285, "alt_km": 629.9700827765046, "timestamp": "2025-12-12T16:50:32.804785+00:00", "meta": {"OBJECT_NAME": "CARBONITE 1 (CBNT-1)", "OBJECT_ID": "2015-032D", "EPOCH": "2025-12-12T07:28:21.852192", "MEAN_MOTION": 14.82741688, "ECCENTRICITY": 0.00143773, "INCLINATION": 97.6404, "RA_OF_ASC_NODE": 167.3743, "ARG_OF_PERICENTER": 182.8579, "MEAN_ANOMALY": 177.2555, "EPHEMERIS_TYPE": 0, "CLASSIFICATION_TYPE": "U", "NORAD_CAT_ID": 40718, "ELEMENT_SET_NO": 999, "REV_AT_EPOCH": 56164, "BSTAR": 0.00056065854, "MEAN_MOTION_DOT": 4.487e-05, "MEAN_MOTION_DDOT": 0}, "tle": {"line1": "1 40718U 15032D   25346.31136403  .00004487  00000+0  56066-3 0  9990", "line2": "2 40718  97.6404 167.3743 0014377 182.8579 177.2555 14.82741688561648"}}, "geometry": {"type": "Point", "coordinates": [-162.0916979268285, -75.04140726855722]}}, {"type": "Feature", "properties": {"norad_id": 40878, "name": "YAOGAN-27", "group": "resource", "lat": 3.712330998591327, "lon": -24.339547689790347, "alt_km": 1200.704584766473, "timestamp": "2025-12-12T16:50:32.804795+00:00", "meta": {"OBJECT_NAME": "YAOGAN-27", "OBJECT_ID": "2015-040A", "EPOCH": "2025-12-12T07:42:02.879424", "MEAN_MOTION": 13.16062204, "ECCENTRICITY": 0.00076261, "INCLINATION": 100.1016, "RA_OF_ASC_NODE": 335.9595, "ARG_OF_PERICENTER": 287.9259, "MEAN_ANOMALY": 72.1023, "EPHEMERIS_TYPE": 0, "CLASSIFICATION_TYPE": "U", "NORAD_CAT_ID": 40878, "ELEMENT_SET_NO": 999, "REV_AT_EPOCH": 49308, "BSTAR": 0.0011432414, "MEAN_MOTION_DOT": 3.92e-06, "MEAN_MOTION_DDOT": 0}, "tle": {"line1": "1 40878U 15040A   25346.32086666  .00000392  00000+0  11432-2 0  9990", "line2": "2 40878 100.1016 335.9595 0007626 287.9259  72.1023 13.16062204493084"}}, "geometry": {"type": "Point", "coordinates": [-24.339547689790347, 3.712330998591327]}}, {"type": "Feature", "properties": {"norad_id": 40894, "name": "GAOFEN-9 01", "group": "resource", "lat": -23.57256733550679, "lon": -157.7053408256347, "alt_km": 646.7597427415885, "timestamp": "2025-12-12T16:50:32.804805+00:00", "meta": {"OBJECT_NAME": "GAOFEN-9 01", "OBJECT_ID": "2015-047A", "EPOCH": "2025-12-12T07:49:39.824832", "MEAN_MOTION": 14.82421125, "ECCENTRICITY": 0.00284246, "INCLINATION": 97.6546, "RA_OF_ASC_NODE": 25.2993, "ARG_OF_PERICENTER": 35.6439, "MEAN_ANOMALY": 324.6666, "EPHEMERIS_TYPE": 0, "CLASSIFICATION_TYPE": "U", "NORAD_CAT_ID": 40894, "ELEMENT_SET_NO": 999, "REV_AT_EPOCH": 55250, "BSTAR": 0.00027066989, "MEAN_MOTION_DOT": 2.133e-05, "MEAN_MOTION_DDOT": 0}, "tle": {"line1": "1 40894U 15047A   25346.32615538  .00002133  00000+0  27067-3 0  9998", "line2": "2 40894  97.6546  25.2993 0028424  35.6439 324.6666 14.82421125552504"}}, "geometry": {"type": "Point", "coordinates": [-157.7053408256347, -23.57256733550679]}}, {"type": "Feature", "properties": {"norad_id": 41026, "name": "YAOGAN-28", "group": "resource", "lat": -10.859993881010848, "lon": 125.90007452836501, "alt_km": 503.3319187640782, "timestamp": "2025-12-12T16:50:32.804815+00:00", "meta": {"OBJECT_NAME": "YAOGAN-28", "OBJECT_ID": "2015-064A", "EPOCH": "2025-12-12T07:26:15.648576", "MEAN_MOTION": 15.24341869, "ECCENTRICITY": 0.00123999, "INCLINATION": 97.2803, "RA_OF_ASC_NODE": 124.114, "ARG_OF_PERICENTER": 127.3, "MEAN_ANOMALY": 232.937, "EPHEMERIS_TYPE": 0, "CLASSIFICATION_TYPE": "U", "NORAD_CAT_ID": 41026, "ELEMENT_SET_NO": 999, "REV_AT_EPOCH": 56218, "BSTAR": 0.00048062052, "MEAN_MOTION_DOT": 0.00011723, "MEAN_MOTION_DDOT": 0}, "tle": {"line1": "1 41026U 15064A   25346.30990334  .00011723  00000+0  48062-3 0  9996", "line2": "2 41026  97.2803 124.1140 0012399 127.3000 232.9370 15.24341869562185"}}, "geometry": {"type": "Point", "coordinates": [125.90007452836501, -10.859993881010848]}}, {"type": "Feature", "properties": {"norad_id": 41038, "name": "YAOGAN-29", "group": "resource", "lat": 81.8546961355679, "lon": -89.95050434839293, "alt_km": 612.9006191243352, "timestamp": "2025-12-12T16:50:32.804825+00:00", "meta": {"OBJECT_NAME": "YAOGAN-29", "OBJECT_ID": "2015-069A", "EPOCH": "2025-12-12T08:20:04.644672", "MEAN_MOTION": 14.82880244, "ECCENTRICITY": 2.579e-05, "INCLINATION": 98.0221, "RA_OF_ASC_NODE": 9.5174, "ARG_OF_PERICENTER": 321.6503, "MEAN_ANOMALY": 38.4692, "EPHEMERIS_TYPE": 0, "CLASSIFICATION_TYPE": "U", "NORAD_CAT_ID": 41038, "ELEMENT_SET_NO": 999, "REV_AT_EPOCH": 54293, "BSTAR": 7.302433e-05, "MEAN_MOTION_DOT": 5.37e-06, "MEAN_MOTION_DDOT": 0}, "tle": {"line1": "1 41038U 15069A   25346.34727598  .00000537  00000+0  73024-4 0  9996", "line2": "2 41038  98.0221   9.5174 0000257 321.6503  38.4692 14.82880244542936"}}, "geometry": {"type": "Point", "coordinates": [-89.95050434839293, 81.8546961355679]}}, {"type": "Feature", "properties": {"norad_id": 41167, "name": "KENT RIDGE 1", "group": "resource", "lat": -7.864579825351611, "lon": -179.67746878584805, "alt_km": 504.6745737281544, "timestamp": "2025-12-12T16:50:32.804835+00:00", "meta": {"OBJECT_NAME": "KENT RIDGE 1", "OBJECT_ID": "2015-077B", "EPOCH": "2025-12-11T22:06:14.080320", "MEAN_MOTION": 15.21626182, "ECCENTRICITY": 0.0008513, "INCLINATION": 14.9787, "RA_OF_ASC_NODE": 217.2158, "ARG_OF_PERICENTER": 119.1546, "MEAN_ANOMALY": 240.9628, "EPHEMERIS_TYPE": 0, "CLASSIFICATION_TYPE": "U", "NORAD_CAT_ID": 41167, "ELEMENT_SET_NO": 999, "REV_AT_EPOCH": 55251, "BSTAR": 0.00026336, "MEAN_MOTION_DOT": 6.894e-05, "MEAN_MOTION_DDOT": 0}, "tle": {"line1": "1 41167U 15077B   25345.92099630  .00006894  00000+0  26336-3 0  9995", "line2": "2 41167  14.9787 217.2158 0008513 119.1546 240.9628 15.21626182552510"}}, "geometry": {"type": "Point", "coordinates": [-179.67746878584805, -7.864579825351611]}}, {"type": "Feature", "properties": {"norad_id": 41194, "name": "GAOFEN-4", "group": "resource", "lat": 0.015420999985559274, "lon": 79.92772707157248, "alt_km": 35791.07460396884, "timestamp": "2025-12-12T16:50:32.804848+00:00", "meta": {"OBJECT_NAME": "GAOFEN-4", "OBJECT_ID": "2015-083A", "EPOCH": "2025-12-12T07:07:47.648928", "MEAN_MOTION": 1.00269632, "ECCENTRICITY": 0.00034944, "INCLINATION": 0.1696, "RA_OF_ASC_NODE": 81.0717, "ARG_OF_PERICENTER": 105.869, "MEAN_ANOMALY": 106.9474, "EPHEMERIS_TYPE": 0, "CLASSIFICATION_TYPE": "U", "NORAD_CAT_ID": 41194, "ELEMENT_SET_NO": 999, "REV_AT_EPOCH": 3665, "BSTAR": 0, "MEAN_MOTION_DOT": -3.24e-06, "MEAN_MOTION_DDOT": 0}, "tle": {"line1": "1 41194U 15083A   25346.29707927 -.00000324  00000+0  00000+0 0  9997", "line2": "2 41194   0.1696  81.0717 0003494 105.8690 106.9474  1.00269632 36656"}}, "geometry": {"type": "Point", "coordinates": [79.92772707157248, 0.015420999985559274]}}, {"type": "Feature", "properties": {"norad_id": 41240, "name": "JASON-3", "group": "resource", "lat": 39.83537444689946, "lon": -43.86976943740443, "alt_km": 1310.8060803153003, "timestamp": "2025-12-12T16:50:32.804859+00:00", "meta": {"OBJECT_NAME": "JASON-3", "OBJECT_ID": "2016-002A", "EPOCH": "2025-12-12T06:49:14.357280", "MEAN_MOTION": 12.87626495, "ECCENTRICITY": 0.00071435, "INCLINATION": 66.0389, "RA_OF_ASC_NODE": 158.7819, "ARG_OF_PERICENTER": 270.8199, "MEAN_ANOMALY": 89.2001, "EPHEMERIS_TYPE": 0, "CLASSIFICATION_TYPE": "U", "NORAD_CAT_ID": 41240, "ELEMENT_SET_NO": 999, "REV_AT_EPOCH": 46318, "BSTAR": 0.00010687864, "MEAN_MOTION_DOT": -3.5e-07, "MEAN_MOTION_DDOT": 0}, "tle": {"line1": "1 41240U 16002A   25346.28419395 -.00000035  00000+0  10688-3 0  9995", "line2": "2 41240  66.0389 158.7819 0007143 270.8199  89.2001 12.87626495463187"}}, "geometry": {"type": "Point", "coordinates": [-43.86976943740443, 39.83537444689946]}}]}